[{"OBJECT_NAME":"QIANFAN-52","OBJECT_ID":"2024-232S","EPOCH":"2026-03-06T04:46:47.937216","MEAN_MOTION":13.51000856,"ECCENTRICITY":0.00140519,"INCLINATION":89.0055,"RA_OF_ASC_NODE":32.6828,"ARG_OF_PERICENTER":317.9824,"MEAN_ANOMALY":42.0248,"EPHEMERIS_TYPE":0,"CLASSIFICATION_TYPE":"U","NORAD_CAT_ID":62253,"ELEMENT_SET_NO":999,"REV_AT_EPOCH":7921,"BSTAR":9.612651e-5,"MEAN_MOTION_DOT":7.4e-7,"MEAN_MOTION_DDOT":0},{"OBJECT_NAME":"QIANFAN-53","OBJECT_ID":"2024-232T","EPOCH":"2026-03-06T06:03:46.714464","MEAN_MOTION":13.51003621,"ECCENTRICITY":0.00129746,"INCLINATION":89.0063,"RA_OF_ASC_NODE":32.7881,"ARG_OF_PERICENTER":319.6331,"MEAN_ANOMALY":40.3856,"EPHEMERIS_TYPE":0,"CLASSIFICATION_TYPE":"U","NORAD_CAT_ID":62254,"ELEMENT_SET_NO":999,"REV_AT_EPOCH":7918,"BSTAR":0.00010792437,"MEAN_MOTION_DOT":8.2e-7,"MEAN_MOTION_DDOT":0},{"OBJECT_NAME":"QIANFAN-54","OBJECT_ID":"2024-232U","EPOCH":"2026-03-06T05:16:25.690656","MEAN_MOTION":13.51003033,"ECCENTRICITY":0.00030718,"INCLINATION":89.0054,"RA_OF_ASC_NODE":32.4626,"ARG_OF_PERICENTER":38.5074,"MEAN_ANOMALY":321.6295,"EPHEMERIS_TYPE":0,"CLASSIFICATION_TYPE":"U","NORAD_CAT_ID":62255,"ELEMENT_SET_NO":999,"REV_AT_EPOCH":11068,"BSTAR":0.00011819752,"MEAN_MOTION_DOT":8.8e-7,"MEAN_MOTION_DDOT":0},{"OBJECT_NAME":"QIANFAN-55","OBJECT_ID":"2025-016A","EPOCH":"2026-03-06T07:40:35.967072","MEAN_MOTION":13.50996346,"ECCENTRICITY":0.00194485,"INCLINATION":88.9692,"RA_OF_ASC_NODE":94.5622,"ARG_OF_PERICENTER":105.9242,"MEAN_ANOMALY":254.4054,"EPHEMERIS_TYPE":0,"CLASSIFICATION_TYPE":"U","NORAD_CAT_ID":62785,"ELEMENT_SET_NO":999,"REV_AT_EPOCH":5847,"BSTAR":5.7321966e-5,"MEAN_MOTION_DOT":4.9e-7,"MEAN_MOTION_DDOT":0},{"OBJECT_NAME":"QIANFAN-56","OBJECT_ID":"2025-016B","EPOCH":"2026-03-06T06:17:31.323840","MEAN_MOTION":13.5099818,"ECCENTRICITY":0.00180805,"INCLINATION":88.9665,"RA_OF_ASC_NODE":94.3822,"ARG_OF_PERICENTER":108.1072,"MEAN_ANOMALY":252.2051,"EPHEMERIS_TYPE":0,"CLASSIFICATION_TYPE":"U","NORAD_CAT_ID":62786,"ELEMENT_SET_NO":999,"REV_AT_EPOCH":5851,"BSTAR":2.6489953e-5,"MEAN_MOTION_DOT":2.9e-7,"MEAN_MOTION_DDOT":0},{"OBJECT_NAME":"QIANFAN-57","OBJECT_ID":"2025-016C","EPOCH":"2026-03-06T05:18:21.432096","MEAN_MOTION":13.50997158,"ECCENTRICITY":0.00013723,"INCLINATION":88.9696,"RA_OF_ASC_NODE":94.5659,"ARG_OF_PERICENTER":99.9311,"MEAN_ANOMALY":260.1996,"EPHEMERIS_TYPE":0,"CLASSIFICATION_TYPE":"U","NORAD_CAT_ID":62787,"ELEMENT_SET_NO":999,"REV_AT_EPOCH":5847,"BSTAR":6.4592386e-5,"MEAN_MOTION_DOT":5.4e-7,"MEAN_MOTION_DDOT":0},{"OBJECT_NAME":"QIANFAN-58","OBJECT_ID":"2025-016D","EPOCH":"2026-03-06T06:23:26.495232","MEAN_MOTION":13.50998709,"ECCENTRICITY":0.00160283,"INCLINATION":88.9666,"RA_OF_ASC_NODE":94.367,"ARG_OF_PERICENTER":101.2792,"MEAN_ANOMALY":259.0162,"EPHEMERIS_TYPE":0,"CLASSIFICATION_TYPE":"U","NORAD_CAT_ID":62788,"ELEMENT_SET_NO":999,"REV_AT_EPOCH":5852,"BSTAR":3.3532183e-5,"MEAN_MOTION_DOT":3.4e-7,"MEAN_MOTION_DDOT":0},{"OBJECT_NAME":"QIANFAN-59","OBJECT_ID":"2025-016E","EPOCH":"2026-03-06T05:12:33.770592","MEAN_MOTION":13.50994635,"ECCENTRICITY":0.00163742,"INCLINATION":88.9689,"RA_OF_ASC_NODE":94.4657,"ARG_OF_PERICENTER":104.6989,"MEAN_ANOMALY":255.5979,"EPHEMERIS_TYPE":0,"CLASSIFICATION_TYPE":"U","NORAD_CAT_ID":62789,"ELEMENT_SET_NO":999,"REV_AT_EPOCH":5851,"BSTAR":5.6084328e-5,"MEAN_MOTION_DOT":4.8e-7,"MEAN_MOTION_DDOT":0},{"OBJECT_NAME":"QIANFAN-60","OBJECT_ID":"2025-016F","EPOCH":"2026-03-06T07:46:38.024544","MEAN_MOTION":13.5099257,"ECCENTRICITY":0.00179411,"INCLINATION":88.967,"RA_OF_ASC_NODE":94.41,"ARG_OF_PERICENTER":101.4468,"MEAN_ANOMALY":258.87,"EPHEMERIS_TYPE":0,"CLASSIFICATION_TYPE":"U","NORAD_CAT_ID":62790,"ELEMENT_SET_NO":999,"REV_AT_EPOCH":5851,"BSTAR":5.1257938e-5,"MEAN_MOTION_DOT":4.5e-7,"MEAN_MOTION_DDOT":0},{"OBJECT_NAME":"QIANFAN-61","OBJECT_ID":"2025-016G","EPOCH":"2026-03-05T14:45:01.370016","MEAN_MOTION":13.46648286,"ECCENTRICITY":0.0014066,"INCLINATION":88.9734,"RA_OF_ASC_NODE":94.7032,"ARG_OF_PERICENTER":94.622,"MEAN_ANOMALY":265.6536,"EPHEMERIS_TYPE":0,"CLASSIFICATION_TYPE":"U","NORAD_CAT_ID":62791,"ELEMENT_SET_NO":999,"REV_AT_EPOCH":5843,"BSTAR":-3.0832,"MEAN_MOTION_DOT":-0.01743446,"MEAN_MOTION_DDOT":0},{"OBJECT_NAME":"QIANFAN-62","OBJECT_ID":"2025-016H","EPOCH":"2026-03-06T05:06:33.403104","MEAN_MOTION":13.50996574,"ECCENTRICITY":0.00182444,"INCLINATION":88.9684,"RA_OF_ASC_NODE":94.4647,"ARG_OF_PERICENTER":101.4786,"MEAN_ANOMALY":258.8415,"EPHEMERIS_TYPE":0,"CLASSIFICATION_TYPE":"U","NORAD_CAT_ID":62792,"ELEMENT_SET_NO":999,"REV_AT_EPOCH":5850,"BSTAR":3.2781202e-5,"MEAN_MOTION_DOT":3.3e-7,"MEAN_MOTION_DDOT":0},{"OBJECT_NAME":"QIANFAN-63","OBJECT_ID":"2025-016J","EPOCH":"2026-03-06T07:28:48.524736","MEAN_MOTION":13.50995242,"ECCENTRICITY":0.00182922,"INCLINATION":88.9691,"RA_OF_ASC_NODE":94.4116,"ARG_OF_PERICENTER":105.9929,"MEAN_ANOMALY":254.3239,"EPHEMERIS_TYPE":0,"CLASSIFICATION_TYPE":"U","NORAD_CAT_ID":62793,"ELEMENT_SET_NO":999,"REV_AT_EPOCH":5855,"BSTAR":3.8149926e-5,"MEAN_MOTION_DOT":3.7e-7,"MEAN_MOTION_DDOT":0},{"OBJECT_NAME":"QIANFAN-64","OBJECT_ID":"2025-016K","EPOCH":"2026-03-06T04:54:47.017440","MEAN_MOTION":13.51005495,"ECCENTRICITY":0.00162406,"INCLINATION":88.9678,"RA_OF_ASC_NODE":94.3855,"ARG_OF_PERICENTER":99.9199,"MEAN_ANOMALY":260.3786,"EPHEMERIS_TYPE":0,"CLASSIFICATION_TYPE":"U","NORAD_CAT_ID":62794,"ELEMENT_SET_NO":999,"REV_AT_EPOCH":5853,"BSTAR":-5.470961e-6,"MEAN_MOTION_DOT":9.0e-8,"MEAN_MOTION_DDOT":0},{"OBJECT_NAME":"QIANFAN-65","OBJECT_ID":"2025-016L","EPOCH":"2026-03-06T06:35:22.351200","MEAN_MOTION":13.51008776,"ECCENTRICITY":0.00160905,"INCLINATION":88.9674,"RA_OF_ASC_NODE":94.4013,"ARG_OF_PERICENTER":101.2475,"MEAN_ANOMALY":259.0485,"EPHEMERIS_TYPE":0,"CLASSIFICATION_TYPE":"U","NORAD_CAT_ID":62795,"ELEMENT_SET_NO":999,"REV_AT_EPOCH":5852,"BSTAR":3.0639376e-5,"MEAN_MOTION_DOT":3.2e-7,"MEAN_MOTION_DDOT":0},{"OBJECT_NAME":"QIANFAN-66","OBJECT_ID":"2025-016M","EPOCH":"2026-03-06T05:30:12.646656","MEAN_MOTION":13.50996941,"ECCENTRICITY":0.00172028,"INCLINATION":88.9694,"RA_OF_ASC_NODE":94.3925,"ARG_OF_PERICENTER":97.6084,"MEAN_ANOMALY":262.7022,"EPHEMERIS_TYPE":0,"CLASSIFICATION_TYPE":"U","NORAD_CAT_ID":62796,"ELEMENT_SET_NO":999,"REV_AT_EPOCH":5856,"BSTAR":3.4127721e-5,"MEAN_MOTION_DOT":3.4e-7,"MEAN_MOTION_DDOT":0},{"OBJECT_NAME":"QIANFAN-67","OBJECT_ID":"2025-016N","EPOCH":"2026-03-06T05:36:03.530016","MEAN_MOTION":13.50995324,"ECCENTRICITY":0.00171556,"INCLINATION":88.9684,"RA_OF_ASC_NODE":94.4095,"ARG_OF_PERICENTER":103.6292,"MEAN_ANOMALY":256.6771,"EPHEMERIS_TYPE":0,"CLASSIFICATION_TYPE":"U","NORAD_CAT_ID":62797,"ELEMENT_SET_NO":999,"REV_AT_EPOCH":5853,"BSTAR":3.8221902e-5,"MEAN_MOTION_DOT":3.7e-7,"MEAN_MOTION_DDOT":0},{"OBJECT_NAME":"QIANFAN-68","OBJECT_ID":"2025-016P","EPOCH":"2026-03-06T05:24:24.264576","MEAN_MOTION":13.51005321,"ECCENTRICITY":0.00172194,"INCLINATION":88.9687,"RA_OF_ASC_NODE":94.4586,"ARG_OF_PERICENTER":102.1268,"MEAN_ANOMALY":258.1813,"EPHEMERIS_TYPE":0,"CLASSIFICATION_TYPE":"U","NORAD_CAT_ID":62798,"ELEMENT_SET_NO":999,"REV_AT_EPOCH":5851,"BSTAR":5.9313296e-5,"MEAN_MOTION_DOT":5.1e-7,"MEAN_MOTION_DDOT":0}]
