QIANFAN-52              
1 62253U 24232S   26065.19916594  .00000074  00000+0  96127-4 0  9993
2 62253  89.0055  32.6828 0014051 317.9824  42.0248 13.51000856 79219
QIANFAN-53              
1 62254U 24232T   26065.25262401  .00000082  00000+0  10792-3 0  9994
2 62254  89.0063  32.7881 0012974 319.6331  40.3856 13.51003621 79188
QIANFAN-54              
1 62255U 24232U   26065.21974179  .00000088  00000+0  11820-3 0  9992
2 62255  89.0054  32.4626 0003071  38.5074 321.6295 13.51003033110682
QIANFAN-55              
1 62785U 25016A   26065.31986073  .00000049  00000+0  57322-4 0  9993
2 62785  88.9692  94.5622 0019448 105.9242 254.4054 13.50996346 58473
QIANFAN-56              
1 62786U 25016B   26065.26216810  .00000029  00000+0  26490-4 0  9993
2 62786  88.9665  94.3822 0018080 108.1072 252.2051 13.50998180 58517
QIANFAN-57              
1 62787U 25016C   26065.22108139  .00000054  00000+0  64592-4 0  9997
2 62787  88.9696  94.5659 0001372  99.9311 260.1996 13.50997158 58476
QIANFAN-58              
1 62788U 25016D   26065.26627888  .00000034  00000+0  33532-4 0  9997
2 62788  88.9666  94.3670 0016028 101.2792 259.0162 13.50998709 58520
QIANFAN-59              
1 62789U 25016E   26065.21705753  .00000048  00000+0  56084-4 0  9993
2 62789  88.9689  94.4657 0016374 104.6989 255.5979 13.50994635 58511
QIANFAN-60              
1 62790U 25016F   26065.32405121  .00000045  00000+0  51258-4 0  9998
2 62790  88.9670  94.4100 0017941 101.4468 258.8700 13.50992570 58518
QIANFAN-61              
1 62791U 25016G   26064.61459919 -.01743446  00000+0 -30832+1 0  9997
2 62791  88.9734  94.7032 0014066  94.6220 265.6536 13.46648286 58432
QIANFAN-62              
1 62792U 25016H   26065.21288661  .00000033  00000+0  32781-4 0  9993
2 62792  88.9684  94.4647 0018244 101.4786 258.8415 13.50996574 58501
QIANFAN-63              
1 62793U 25016J   26065.31167274  .00000037  00000+0  38150-4 0  9991
2 62793  88.9691  94.4116 0018292 105.9929 254.3239 13.50995242 58553
QIANFAN-64              
1 62794U 25016K   26065.20471085  .00000009  00000+0 -54710-5 0  9999
2 62794  88.9678  94.3855 0016240  99.9199 260.3786 13.51005495 58535
QIANFAN-65              
1 62795U 25016L   26065.27456425  .00000032  00000+0  30639-4 0  9996
2 62795  88.9674  94.4013 0016090 101.2475 259.0485 13.51008776 58521
QIANFAN-66              
1 62796U 25016M   26065.22931304  .00000034  00000+0  34128-4 0  9995
2 62796  88.9694  94.3925 0017202  97.6084 262.7022 13.50996941 58566
QIANFAN-67              
1 62797U 25016N   26065.23337419  .00000037  00000+0  38222-4 0  9996
2 62797  88.9684  94.4095 0017155 103.6292 256.6771 13.50995324 58535
QIANFAN-68              
1 62798U 25016P   26065.22528084  .00000051  00000+0  59313-4 0  9996
2 62798  88.9687  94.4586 0017219 102.1268 258.1813 13.51005321 58514
